{
  "type": "FeatureCollection",
  "features": [
    {
      "type": "Feature",
      "properties": {
        "norad_id": 30816,
        "name": "FENGYUN 1C DEB",
        "group": "fengyun-1c-debris",
        "lat": -52.89119044986748,
        "lon": -134.63136733500883,
        "alt_km": 876.8184311947161,
        "timestamp": "2025-12-12T20:43:07.313933+00:00",
        "meta_object_name": "FENGYUN 1C DEB",
        "meta_object_id": "1999-025AVA",
        "meta_epoch": "2025-12-12T04:39:31.224096",
        "meta_mean_motion": 14.18003155,
        "meta_eccentricity": 0.005242,
        "meta_inclination": 98.9145,
        "meta_ra_of_asc_node": 56.6708,
        "meta_arg_of_pericenter": 56.893,
        "meta_mean_anomaly": 2.7743,
        "meta_ephemeris_type": 0,
        "meta_classification_type": "U",
        "meta_norad_cat_id": 30816,
        "meta_element_set_no": 999,
        "meta_rev_at_epoch": 96386,
        "meta_bstar": 0.0024397141,
        "meta_mean_motion_dot": 5.023e-05,
        "meta_mean_motion_ddot": 0,
        "tle_line1": "1 30816U 99025AVA 25346.19411139  .00005023  00000+0  24397-2 0  9998",
        "tle_line2": "2 30816  98.9145  56.6708 0052420  56.8930   2.7743 14.18003155963865"
      },
      "geometry": {
        "type": "Point",
        "coordinates": [
          -134.63136733500883,
          -52.89119044986748
        ]
      }
    },
    {
      "type": "Feature",
      "properties": {
        "norad_id": 30817,
        "name": "FENGYUN 1C DEB",
        "group": "fengyun-1c-debris",
        "lat": -48.72611904721494,
        "lon": -12.781144313829994,
        "alt_km": 880.9902330031082,
        "timestamp": "2025-12-12T20:43:07.313943+00:00",
        "meta_object_name": "FENGYUN 1C DEB",
        "meta_object_id": "1999-025AVB",
        "meta_epoch": "2025-12-11T22:40:04.945152",
        "meta_mean_motion": 14.0071979,
        "meta_eccentricity": 0.0057375,
        "meta_inclination": 98.7858,
        "meta_ra_of_asc_node": 336.1871,
        "meta_arg_of_pericenter": 247.0468,
        "meta_mean_anomaly": 112.4637,
        "meta_ephemeris_type": 0,
        "meta_classification_type": "U",
        "meta_norad_cat_id": 30817,
        "meta_element_set_no": 999,
        "meta_rev_at_epoch": 95898,
        "meta_bstar": 0.00037474,
        "meta_mean_motion_dot": 5.24e-06,
        "meta_mean_motion_ddot": 0,
        "tle_line1": "1 30817U 99025AVB 25345.94450168  .00000524  00000+0  37474-3 0  9998",
        "tle_line2": "2 30817  98.7858 336.1871 0057375 247.0468 112.4637 14.00719790958984"
      },
      "geometry": {
        "type": "Point",
        "coordinates": [
          -12.781144313829994,
          -48.72611904721494
        ]
      }
    },
    {
      "type": "Feature",
      "properties": {
        "norad_id": 30820,
        "name": "FENGYUN 1C DEB",
        "group": "fengyun-1c-debris",
        "lat": -3.6821120975564767,
        "lon": -97.40211588423847,
        "alt_km": 786.550137605408,
        "timestamp": "2025-12-12T20:43:07.313953+00:00",
        "meta_object_name": "FENGYUN 1C DEB",
        "meta_object_id": "1999-025AVE",
        "meta_epoch": "2025-12-12T06:41:19.201344",
        "meta_mean_motion": 14.21396113,
        "meta_eccentricity": 0.00520883,
        "meta_inclination": 98.6751,
        "meta_ra_of_asc_node": 82.5865,
        "meta_arg_of_pericenter": 188.5067,
        "meta_mean_anomaly": 245.4791,
        "meta_ephemeris_type": 0,
        "meta_classification_type": "U",
        "meta_norad_cat_id": 30820,
        "meta_element_set_no": 999,
        "meta_rev_at_epoch": 96417,
        "meta_bstar": 0.0031181908,
        "meta_mean_motion_dot": 6.867e-05,
        "meta_mean_motion_ddot": 0,
        "tle_line1": "1 30820U 99025AVE 25346.27869446  .00006867  00000+0  31182-2 0  9997",
        "tle_line2": "2 30820  98.6751  82.5865 0052088 188.5067 245.4791 14.21396113964173"
      },
      "geometry": {
        "type": "Point",
        "coordinates": [
          -97.40211588423847,
          -3.6821120975564767
        ]
      }
    },
    {
      "type": "Feature",
      "properties": {
        "norad_id": 30821,
        "name": "FENGYUN 1C DEB",
        "group": "fengyun-1c-debris",
        "lat": -65.66198548064108,
        "lon": -71.3120057985239,
        "alt_km": 687.8775323755917,
        "timestamp": "2025-12-12T20:43:07.313963+00:00",
        "meta_object_name": "FENGYUN 1C DEB",
        "meta_object_id": "1999-025AVF",
        "meta_epoch": "2025-12-11T09:05:13.802208",
        "meta_mean_motion": 14.4964684,
        "meta_eccentricity": 0.00863832,
        "meta_inclination": 99.103,
        "meta_ra_of_asc_node": 127.847,
        "meta_arg_of_pericenter": 210.0047,
        "meta_mean_anomaly": 213.0337,
        "meta_ephemeris_type": 0,
        "meta_classification_type": "U",
        "meta_norad_cat_id": 30821,
        "meta_element_set_no": 999,
        "meta_rev_at_epoch": 98769,
        "meta_bstar": 0.0017050443,
        "meta_mean_motion_dot": 6.825e-05,
        "meta_mean_motion_ddot": 0,
        "tle_line1": "1 30821U 99025AVF 25345.37863197  .00006825  00000+0  17050-2 0  9997",
        "tle_line2": "2 30821  99.1030 127.8470 0086383 210.0047 213.0337 14.49646840987693"
      },
      "geometry": {
        "type": "Point",
        "coordinates": [
          -71.3120057985239,
          -65.66198548064108
        ]
      }
    },
    {
      "type": "Feature",
      "properties": {
        "norad_id": 30822,
        "name": "FENGYUN 1C DEB",
        "group": "fengyun-1c-debris",
        "lat": 35.53538925767086,
        "lon": -158.7718319520418,
        "alt_km": 893.3209560703262,
        "timestamp": "2025-12-12T20:43:07.313973+00:00",
        "meta_object_name": "FENGYUN 1C DEB",
        "meta_object_id": "1999-025AVG",
        "meta_epoch": "2025-12-12T01:27:15.977376",
        "meta_mean_motion": 14.11340362,
        "meta_eccentricity": 0.00731108,
        "meta_inclination": 98.7354,
        "meta_ra_of_asc_node": 14.1426,
        "meta_arg_of_pericenter": 287.2744,
        "meta_mean_anomaly": 101.1589,
        "meta_ephemeris_type": 0,
        "meta_classification_type": "U",
        "meta_norad_cat_id": 30822,
        "meta_element_set_no": 999,
        "meta_rev_at_epoch": 96692,
        "meta_bstar": 0.00048556191,
        "meta_mean_motion_dot": 8.57e-06,
        "meta_mean_motion_ddot": 0,
        "tle_line1": "1 30822U 99025AVG 25346.06060159  .00000857  00000+0  48556-3 0  9997",
        "tle_line2": "2 30822  98.7354  14.1426 0073110 287.2744 101.1589 14.11340362966929"
      },
      "geometry": {
        "type": "Point",
        "coordinates": [
          -158.7718319520418,
          35.53538925767086
        ]
      }
    },
    {
      "type": "Feature",
      "properties": {
        "norad_id": 30823,
        "name": "FENGYUN 1C DEB",
        "group": "fengyun-1c-debris",
        "lat": -55.9288874943706,
        "lon": -65.31363133772325,
        "alt_km": 978.2106243412945,
        "timestamp": "2025-12-12T20:43:07.313984+00:00",
        "meta_object_name": "FENGYUN 1C DEB",
        "meta_object_id": "1999-025AVH",
        "meta_epoch": "2025-12-12T04:47:25.078848",
        "meta_mean_motion": 14.0255544,
        "meta_eccentricity": 0.01341188,
        "meta_inclination": 98.7628,
        "meta_ra_of_asc_node": 127.2306,
        "meta_arg_of_pericenter": 86.0996,
        "meta_mean_anomaly": 40.847,
        "meta_ephemeris_type": 0,
        "meta_classification_type": "U",
        "meta_norad_cat_id": 30823,
        "meta_element_set_no": 999,
        "meta_rev_at_epoch": 96026,
        "meta_bstar": 0.00062451814,
        "meta_mean_motion_dot": 1e-05,
        "meta_mean_motion_ddot": 0,
        "tle_line1": "1 30823U 99025AVH 25346.19959582  .00001000  00000+0  62452-3 0  9991",
        "tle_line2": "2 30823  98.7628 127.2306 0134118  86.0996  40.8470 14.02555440960261"
      },
      "geometry": {
        "type": "Point",
        "coordinates": [
          -65.31363133772325,
          -55.9288874943706
        ]
      }
    },
    {
      "type": "Feature",
      "properties": {
        "norad_id": 30826,
        "name": "FENGYUN 1C DEB",
        "group": "fengyun-1c-debris",
        "lat": 35.41608629758718,
        "lon": 175.51318989839342,
        "alt_km": 540.7258931203287,
        "timestamp": "2025-12-12T20:43:07.313994+00:00",
        "meta_object_name": "FENGYUN 1C DEB",
        "meta_object_id": "1999-025AVL",
        "meta_epoch": "2025-12-11T12:17:36.202848",
        "meta_mean_motion": 14.82215968,
        "meta_eccentricity": 0.01454791,
        "meta_inclination": 98.8672,
        "meta_ra_of_asc_node": 180.3905,
        "meta_arg_of_pericenter": 0.7589,
        "meta_mean_anomaly": 29.2235,
        "meta_ephemeris_type": 0,
        "meta_classification_type": "U",
        "meta_norad_cat_id": 30826,
        "meta_element_set_no": 999,
        "meta_rev_at_epoch": 268,
        "meta_bstar": 0.00088628701,
        "meta_mean_motion_dot": 8.436e-05,
        "meta_mean_motion_ddot": 0,
        "tle_line1": "1 30826U 99025AVL 25345.51222457  .00008436  00000+0  88629-3 0  9997",
        "tle_line2": "2 30826  98.8672 180.3905 0145479   0.7589  29.2235 14.82215968  2681"
      },
      "geometry": {
        "type": "Point",
        "coordinates": [
          175.51318989839342,
          35.41608629758718
        ]
      }
    }
  ]
}